SB KEPS @ AMSAT  $ORB09136.N
2Line Orbital Elements 09136.AMSAT

HR AMSAT ORBITAL ELEMENTS FOR AMATEUR SATELLITES IN NASA FORMAT
FROM WA5QGD FORT WORTH,TX May 16, 2009
Send Subscribe/unsubscribe to KEPS at 
http://www.amsat.org/mailman/listinfo/keps
BID: ORB09136.N

DECODE 2-LINE ELSETS WITH THE FOLLOWING KEY:
1 AAAAAU 00  0  0 BBBBB.BBBBBBBB  .CCCCCCCC  00000-0  00000-0 0  DDDZ
2 AAAAA EEE.EEEE FFF.FFFF GGGGGGG HHH.HHHH III.IIII JJ.JJJJJJJJKKKKKZ
KEY: A-CATALOGNUM B-EPOCHTIME C-DECAY D-ELSETNUM E-INCLINATION F-RAAN
G-ECCENTRICITY H-ARGPERIGEE I-MNANOM J-MNMOTION K-ORBITNUM Z-CHECKSUM

TO ALL RADIO AMATEURS BT

SO-33
1 25509U 98061B   09136.39314056  .00000137  00000-0  17087-4 0  4549
2 25509 031.4317 232.2658 0353968 060.5234 303.0224 14.28252157551286
RS-22
1 27939U 03042A   09135.85538180  .00000113  00000-0  30815-4 0  7900
2 27939 097.9499 011.8945 0012686 232.0309 127.9753 14.63315793300840
AO-07
1 07530U 74089B   09135.84696799 -.00000027  00000-0  10000-3 0 04796
2 07530 101.4276 161.7091 0011701 333.5230 026.5236 12.53575707578660
FO-29
1 24278U 96046B   09135.83444780  .00000033  00000-0  66862-4 0   410
2 24278 098.5587 014.2142 0351363 074.2768 289.6831 13.52943796629379
VO-52
1 28650U 05017B   09135.76704626 -.00000267  00000-0 -27268-4 0  2258
2 28650 097.7432 198.4170 0028102 133.6828 226.7051 14.81582348217848
CO-65
1 32785U 08021C   09136.31327094  .00000117  00000-0  21750-4 0  3660
2 32785 097.9468 200.5395 0015864 131.6896 228.5673 14.81480168 56726
CP3
1 31129U 07012N   09136.13155733  .00000098  00000-0  33400-4 0  9310
2 31129 097.9937 190.7408 0102983 025.3189 335.3016 14.52129925110230
AO-51
1 28375U 04025K   09136.08487887  .00000006  00000-0  14689-4 0  3896
2 28375 098.0537 147.5612 0082803 222.5325 136.9433 14.40641446256339
GENESAT1
1 29655U 06058C   09135.96626874  .00012027  00000-0  12181-3 0 07112
2 29655 040.0254 025.1170 0002549 269.7020 090.3505 15.64950256137428
KKS-1
1 33493U 09002B   09135.93214423  .00000287  00000-0  44346-4 0 03850
2 33493 098.0545 248.0055 0019965 350.0146 010.0664 14.80664741016698
AO-16
1 20439U 90005D   09135.91887775 -.00000012  00000-0  10912-4 0 06068
2 20439 098.2761 105.7939 0009964 268.3414 091.6627 14.31823561008534
LO-19
1 20442U 90005G   09135.91126962 -.00000059  00000-0 -66881-5 0 05266
2 20442 098.2396 113.1748 0010912 263.7981 096.1960 14.32059269008690
CO-56
1 28941U 06005C   09135.90902426  .00050302  35044-5  19393-3 0 00805
2 28941 098.1365 304.3868 0094280 253.4433 105.6539 15.80682491182146
SOHLA-1
1 33496U 09002E   09135.90571186  .00000035  00000-0  14124-4 0 03472
2 33496 098.0356 245.7222 0007493 034.1945 325.9733 14.69432989016533
AO-27
1 22825U 93061C   09135.87283545  .00000111  00000-0  60174-4 0 02435
2 22825 098.4360 090.3194 0008465 007.8447 352.2855 14.29265654815299
GO-32
1 25397U 98043D   09135.73167847  .00000096  00000-0  60586-4 0  8938
2 25397 098.3273 159.8087 0001343 035.8861 324.2401 14.23159124563518
CO-55
1 27844U 03031E   09135.59410616  .00000033  00000-0  35519-4 0 05799
2 27844 098.7128 145.2216 0008929 236.3627 123.6691 14.20636842304630
IO-26
1 22826U 93061D   09135.58874992 -.00000009  00000-0  12855-4 0 09703
2 22826 098.4271 090.8054 0009087 002.9005 357.2228 14.29516772815354
NO-44
1 26931U 01043C   09135.54192557  .00000144  00000-0  88346-4 0 01696
2 26931 067.0501 148.4470 0005407 269.7031 090.3459 14.29556749397915
SO-50
1 27607U 02058C   09135.49711827 -.00000016  00000-0  19625-4 0  8853
2 27607 064.5568 124.3731 0070947 213.0285 146.6359 14.71435057343862
CO-57
1 27848U 03031J   09135.49665576  .00000023  00000-0  31039-4 0 05263
2 27848 098.7144 144.1854 0008885 241.5858 118.4433 14.20438960304584
NOAA-18
1 28654U 05018A   09136.56842687 -.00000151  00000-0 -59017-4 0  9001
2 28654 098.9061 080.0551 0015401 091.9993 268.2937 14.11255677205496
RESURS
1 25394U 98043A   09136.54503361  .00000002  00000-0  18511-4 0  2134
2 25394 098.3409 170.4990 0001324 348.5256 011.5896 14.24182680563898
NOAA-19
1 33591U 09005A   09136.54160471  .00000357  00000-0  22277-3 0  1059
2 33591 098.7456 083.1292 0013679 337.2551 022.7986 14.10958800 13979
FENGYUN1
1 25730U 99025A   09136.51601177 -.00000419  00000-0 -22107-3 0  7561
2 25730 098.7548 107.6303 0021343 313.8803 046.0601 14.07954074515862
NOAA-12
1 21263U 91032A   09135.96188229  .00000042  00000-0  36868-4 0 01401
2 21263 098.7729 144.0085 0011338 238.8558 121.1510 14.25578317935804
MET-3/5
1 21655U 91056A   09135.93831655  .00000051  00000-0  10000-3 0 05994
2 21655 082.5498 229.2697 0012316 263.2827 096.6893 13.17018735853381
NOAA-16
1 26536U 00055A   09135.85016317  .00000230  00000-0  14947-3 0 04034
2 26536 099.1760 138.7357 0010760 017.4738 342.6781 14.12518313445737
OKEAN-0
1 25860U 99039A   09135.84949880  .00000024  00000-0  10923-4 0 06799
2 25860 097.7841 118.3195 0000673 051.4593 308.6679 14.73572195528389
OKEAN-4
1 23317U 94066A   09135.84130994  .00000063  00000-0  48054-5 0  9082
2 23317 082.5396 004.6748 0023687 109.0696 251.3060 14.82695297787571
NOAA-14
1 23455U 94089A   09135.82758567  .00000236  00000-0  14841-3 0 06196
2 23455 098.9096 213.6184 0008546 283.6328 076.3872 14.13764428741355
NOAA-17
1 27453U 02032A   09135.82080391  .00000086  00000-0  55957-4 0 04137
2 27453 098.4862 196.0015 0011203 213.8898 146.1539 14.24063051358144
NOAA-15
1 25338U 98030A   09135.81877148 -.00000047  00000-0 -18522-5 0 09269
2 25338 098.5826 125.7387 0011181 147.5084 212.6759 14.24758602572167
MET-2/21
1 22782U 93055A   09135.78253809 -.00000050  00000-0 -59000-4 0 04588
2 22782 082.5484 207.7084 0024094 078.3330 282.0525 13.83636061793128
NOAA-11
1 19531U 88089A   09135.67792881 -.00000116  00000-0 -37451-4 0 06247
2 19531 098.7825 226.1317 0011237 197.5610 162.5192 14.14894591064928
NOAA-10
1 16969U 86073A   09135.63172946 -.00000065  00000-0 -82737-5 0 06151
2 16969 098.6926 162.4537 0011482 293.9740 066.0229 14.27385928178865
ISS
1 25544U 98067A   09136.49085769  .00011563  00000-0  87845-4 0  8628
2 25544 051.6394 109.4812 0009412 010.1369 086.6470 15.72812885600960
RS-30
1 32953U 08025A   09135.91337976  .00000010  00000-0  00000-0 0 03074
2 32953 082.4989 276.6806 0018165 248.0287 111.8860 12.43000935044382
CAPE1
1 31130U 07012P   09135.89313942  .00000004  00000-0  11658-4 0 06025
2 31130 097.9944 190.4308 0103179 026.4152 334.2244 14.52055971110001
FALCON
1 30776U 07006E   09135.88677939  .00000358  00000-0  28980-4 0 05691
2 30776 035.4346 295.3806 0001859 347.0418 013.0250 15.03237171120232
AAUSAT2
1 32788U 08021F   09135.85802207  .00000098  00000-0  19172-4 0  3589
2 32788 097.9466 200.0074 0016985 135.8720 224.3828 14.81717603 56669
MAST
1 31126U 07012K   09135.74854816  .00000078  00000-0  28172-4 0 05966
2 31126 097.9905 192.0336 0095357 021.1493 339.3627 14.53495166110321
DO-64
1 32789U 08021G   09135.74420960  .00000640  00000-0  87827-4 0  3675
2 32789 097.9490 200.0342 0016482 133.7184 226.5397 14.81694797 56649
CO-58
1 28895U 05043F   09135.71091062  .00000134  00000-0  37505-4 0 03039
2 28895 098.0654 027.2297 0019210 089.7058 270.6350 14.59766904188994
COMPASS
1 32787U 08021E   09135.07703906  .00000359  00000-0  52348-4 0 03580
2 32787 097.9439 199.1765 0016631 136.5483 223.7051 14.81596020056541
CO-66
1 32791U 08021J   09135.04854398  .00000141  00000-0  24844-4 0 03527
2 32791 097.9468 199.1812 0016820 134.7813 225.4760 14.81427891056509
HUBBLE
1 20580U 90037B   09134.53767208  .00042590  00000-0  32649-2 0 03876
2 20580 028.4844 321.9009 0002635 308.8673 091.8764 15.00571298844797
/EX
